"CCSDS_OMM_VERS","COMMENT","CREATION_DATE","ORIGINATOR","OBJECT_NAME","OBJECT_ID","CENTER_NAME","REF_FRAME","TIME_SYSTEM","MEAN_ELEMENT_THEORY","EPOCH","MEAN_MOTION","ECCENTRICITY","INCLINATION","RA_OF_ASC_NODE","ARG_OF_PERICENTER","MEAN_ANOMALY","EPHEMERIS_TYPE","CLASSIFICATION_TYPE","NORAD_CAT_ID","ELEMENT_SET_NO","REV_AT_EPOCH","BSTAR","MEAN_MOTION_DOT","MEAN_MOTION_DDOT","SEMIMAJOR_AXIS","PERIOD","APOAPSIS","PERIAPSIS","OBJECT_TYPE","RCS_SIZE","COUNTRY_CODE","LAUNCH_DATE","SITE","DECAY_DATE","FILE","GP_ID","TLE_LINE0","TLE_LINE1","TLE_LINE2"
"2.0","GENERATED VIA SPACE-TRACK.ORG API","2022-01-10T22:36:11","18 SPCS","CARTOSAT 3","2019-081A","EARTH","TEME","UTC","SGP4","2022-01-10T20:00:56.776608","15.19303327","0.00144990","97.4211","75.4298","52.5862","58.8337","0","U","44804","999","11770","0.00004101500000","0.00000799","0.0000000000000","6886.082","94.780","517.931","497.963","PAYLOAD","LARGE","IND","2019-11-27","SRI",null,"3268944","193598739","0 CARTOSAT 3","1 44804U 19081A   22010.83399047  .00000799  00000-0  41015-4 0  9997","2 44804  97.4211  75.4298 0014499  52.5862  58.8337 15.19303327117700"
"2.0","GENERATED VIA SPACE-TRACK.ORG API","2022-01-11T03:39:12","18 SPCS","CARTOSAT 3","2019-081A","EARTH","TEME","UTC","SGP4","2022-01-10T20:00:56.776608","15.19303327","0.00144990","97.4211","75.4298","52.5862","58.8337","0","U","44804","999","11770","0.00004101500000","0.00000799","0.0000000000000","6886.082","94.780","517.931","497.963","PAYLOAD","LARGE","IND","2019-11-27","SRI",null,"3269118","193623329","0 CARTOSAT 3","1 44804U 19081A   22010.83399047  .00000799  00000-0  41015-4 0  9997","2 44804  97.4211  75.4298 0014499  52.5862  58.8337 15.19303327117700"
"2.0","GENERATED VIA SPACE-TRACK.ORG API","2022-01-11T06:16:11","18 SPCS","CARTOSAT 3","2019-081A","EARTH","TEME","UTC","SGP4","2022-01-11T05:07:56.875872","15.19304306","0.00144850","97.4209","75.8027","51.4244","336.3254","0","U","44804","999","11776","0.00004297200000","0.00000841","0.0000000000000","6886.079","94.780","517.918","497.969","PAYLOAD","LARGE","IND","2019-11-27","SRI",null,"3269130","193628560","0 CARTOSAT 3","1 44804U 19081A   22011.21385273  .00000841  00000-0  42972-4 0  9997","2 44804  97.4209  75.8027 0014485  51.4244 336.3254 15.19304306117764"
"2.0","GENERATED VIA SPACE-TRACK.ORG API","2022-01-11T14:16:11","18 SPCS","CARTOSAT 3","2019-081A","EARTH","TEME","UTC","SGP4","2022-01-11T11:48:50.120064","15.19305108","0.00144960","97.4209","76.0764","50.5516","58.9030","0","U","44804","999","11780","0.00004502400000","0.00000884","0.0000000000000","6886.076","94.780","517.924","497.959","PAYLOAD","LARGE","IND","2019-11-27","SRI",null,"3269373","193633824","0 CARTOSAT 3","1 44804U 19081A   22011.49224676  .00000884  00000-0  45024-4 0  9994","2 44804  97.4209  76.0764 0014496  50.5516  58.9030 15.19305108117804"
"2.0","GENERATED VIA SPACE-TRACK.ORG API","2022-01-11T21:07:29","18 SPCS","CARTOSAT 3","2019-081A","EARTH","TEME","UTC","SGP4","2022-01-11T11:48:50.120064","15.19305108","0.00144960","97.4209","76.0764","50.5516","58.9030","0","U","44804","999","11780","0.00004502400000","0.00000884","0.0000000000000","6886.076","94.780","517.924","497.959","PAYLOAD","LARGE","IND","2019-11-27","SRI",null,"3269657","193660619","0 CARTOSAT 3","1 44804U 19081A   22011.49224676  .00000884  00000-0  45024-4 0  9994","2 44804  97.4209  76.0764 0014496  50.5516  58.9030 15.19305108117804"
"2.0","GENERATED VIA SPACE-TRACK.ORG API","2022-01-11T22:16:11","18 SPCS","CARTOSAT 3","2019-081A","EARTH","TEME","UTC","SGP4","2022-01-11T18:07:58.765728","15.19305711","0.00144740","97.4209","76.3352","49.6117","59.0134","0","U","44804","999","11784","0.00004576200000","0.00000900","0.0000000000000","6886.075","94.780","517.907","497.973","PAYLOAD","LARGE","IND","2019-11-27","SRI",null,"3269745","193666148","0 CARTOSAT 3","1 44804U 19081A   22011.75554127  .00000900  00000-0  45762-4 0  9998","2 44804  97.4209  76.3352 0014474  49.6117  59.0134 15.19305711117843"
"2.0","GENERATED VIA SPACE-TRACK.ORG API","2022-01-11T23:06:11","18 SPCS","CARTOSAT 3","2019-081A","EARTH","TEME","UTC","SGP4","2022-01-11T21:19:27.344352","15.19227029","0.00141980","97.4234","76.4653","49.9195","65.4041","0","U","44804","999","11786","0.00366350000000","0.00078046","0.0000000000000","6886.312","94.785","517.955","498.400","PAYLOAD","LARGE","IND","2019-11-27","SRI",null,"3269886","193668509","0 CARTOSAT 3","1 44804U 19081A   22011.88851093  .00078046  00000-0  36635-2 0  9997","2 44804  97.4234  76.4653 0014198  49.9195  65.4041 15.19227029117863"
"2.0","GENERATED VIA SPACE-TRACK.ORG API","2022-01-12T06:16:14","18 SPCS","CARTOSAT 3","2019-081A","EARTH","TEME","UTC","SGP4","2022-01-12T01:49:21.478656","15.19306305","0.00144630","97.4209","76.6499","48.5380","11.4063","0","U","44804","999","11789","0.00004562000000","0.00000897","0.0000000000000","6886.073","94.780","517.897","497.979","PAYLOAD","LARGE","IND","2019-11-27","SRI",null,"3269993","193696023","0 CARTOSAT 3","1 44804U 19081A   22012.07594304  .00000897  00000-0  45620-4 0  9993","2 44804  97.4209  76.6499 0014463  48.5380  11.4063 15.19306305117894"
"2.0","GENERATED VIA SPACE-TRACK.ORG API","2022-01-12T14:36:11","18 SPCS","CARTOSAT 3","2019-081A","EARTH","TEME","UTC","SGP4","2022-01-12T13:13:28.659360","15.19222869","0.00141580","97.4215","77.1160","47.1022","89.3294","0","U","44804","999","11796","0.00038964000000","0.00008162","0.0000000000000","6886.325","94.785","517.940","498.440","PAYLOAD","LARGE","IND","2019-11-27","SRI",null,"3270372","193704240","0 CARTOSAT 3","1 44804U 19081A   22012.55102615  .00008162  00000-0  38964-3 0  9991","2 44804  97.4215  77.1160 0014158  47.1022  89.3294 15.19222869117961"
"2.0","GENERATED VIA SPACE-TRACK.ORG API","2022-01-13T10:06:11","18 SPCS","CARTOSAT 3","2019-081A","EARTH","TEME","UTC","SGP4","2022-01-13T07:52:06.500064","15.19207492","0.00141450","97.4219","77.8798","47.5437","14.7834","0","U","44804","999","11808","-0.00139240000000","-0.00029318","0.0000000000000","6886.371","94.786","517.977","498.496","PAYLOAD","LARGE","IND","2019-11-27","SRI",null,"3271544","193749243","0 CARTOSAT 3","1 44804U 19081A   22013.32785301 -.00029318  00000-0 -13924-2 0  9992","2 44804  97.4219  77.8798 0014145  47.5437  14.7834 15.19207492118080"
"2.0","GENERATED VIA SPACE-TRACK.ORG API","2022-01-13T21:56:10","18 SPCS","CARTOSAT 3","2019-081A","EARTH","TEME","UTC","SGP4","2022-01-13T20:44:14.560224","15.19215266","0.00140350","97.4219","78.4066","43.7846","69.2625","0","U","44804","999","11816","-0.00001582900000","-0.00000402","0.0000000000000","6886.348","94.786","517.878","498.548","PAYLOAD","LARGE","IND","2019-11-27","SRI",null,"3272021","193783940","0 CARTOSAT 3","1 44804U 19081A   22013.86405741 -.00000402  00000-0 -15829-4 0  9999","2 44804  97.4219  78.4066 0014035  43.7846  69.2625 15.19215266118165"
"2.0","GENERATED VIA SPACE-TRACK.ORG API","2022-01-14T20:56:11","18 SPCS","CARTOSAT 3","2019-081A","EARTH","TEME","UTC","SGP4","2022-01-14T18:54:25.614144","15.19223750","0.00142240","97.4217","79.3150","39.9016","82.0389","0","U","44804","999","11830","0.00008926900000","0.00001816","0.0000000000000","6886.322","94.785","517.982","498.392","PAYLOAD","LARGE","IND","2019-11-27","SRI",null,"3272935","193850547","0 CARTOSAT 3","1 44804U 19081A   22014.78779646  .00001816  00000-0  89269-4 0  9996","2 44804  97.4217  79.3150 0014224  39.9016  82.0389 15.19223750118306"
"2.0","GENERATED VIA SPACE-TRACK.ORG API","2022-01-15T06:26:11","18 SPCS","CARTOSAT 3","2019-081A","EARTH","TEME","UTC","SGP4","2022-01-15T02:41:19.540608","15.19223181","0.00142030","97.4218","79.6336","38.9038","55.2097","0","U","44804","999","11835","0.00006877200000","0.00001383","0.0000000000000","6886.324","94.785","517.970","498.408","PAYLOAD","LARGE","IND","2019-11-27","SRI",null,"3273257","193882349","0 CARTOSAT 3","1 44804U 19081A   22015.11203172  .00001383  00000-0  68772-4 0  9995","2 44804  97.4218  79.6336 0014203  38.9038  55.2097 15.19223181118357"
"2.0","GENERATED VIA SPACE-TRACK.ORG API","2022-01-15T14:16:11","18 SPCS","CARTOSAT 3","2019-081A","EARTH","TEME","UTC","SGP4","2022-01-15T10:38:33.957312","15.19225078","0.00142370","97.4216","79.9592","37.7836","67.7628","0","U","44804","999","11840","0.00007873000000","0.00001594","0.0000000000000","6886.318","94.785","517.987","498.379","PAYLOAD","LARGE","IND","2019-11-27","SRI",null,"3273482","193887420","0 CARTOSAT 3","1 44804U 19081A   22015.44344858  .00001594  00000-0  78730-4 0  9997","2 44804  97.4216  79.9592 0014237  37.7836  67.7628 15.19225078118403"
"2.0","GENERATED VIA SPACE-TRACK.ORG API","2022-01-15T17:27:40","18 SPCS","CARTOSAT 3","2019-081A","EARTH","TEME","UTC","SGP4","2022-01-15T13:55:55.553376","15.19226106","0.00142610","97.4217","80.0940","37.4378","97.2174","0","U","44804","999","11842","0.00008532900000","0.00001733","0.0000000000000","6886.315","94.785","518.001","498.360","PAYLOAD","LARGE","IND","2019-11-27","SRI",null,"3273762","193913419","0 CARTOSAT 3","1 44804U 19081A   22015.58050409  .00001733  00000-0  85329-4 0  9995","2 44804  97.4217  80.0940 0014261  37.4378  97.2174 15.19226106118428"
"2.0","GENERATED VIA SPACE-TRACK.ORG API","2022-01-15T22:36:11","18 SPCS","CARTOSAT 3","2019-081A","EARTH","TEME","UTC","SGP4","2022-01-15T17:11:39.628032","15.19226520","0.00142620","97.4217","80.2275","36.9463","120.6470","0","U","44804","999","11844","0.00008458400000","0.00001717","0.0000000000000","6886.314","94.785","518.000","498.358","PAYLOAD","LARGE","IND","2019-11-27","SRI",null,"3273827","193919980","0 CARTOSAT 3","1 44804U 19081A   22015.71643088  .00001717  00000-0  84584-4 0  9995","2 44804  97.4217  80.2275 0014262  36.9463 120.6470 15.19226520118443"
